satname,norad_id,inclination_deg,eccentricity,mean_motion_rev_per_day,perigee_km,apogee_km,l1,l2
STARLINK-1471,45735,53.0516,0.0001531,15.40684009,443.0448702551157,445.1338359644378,1 45735U 20038F   25300.72674273  .00024537  00000+0  60006-3 0  9990,2 45735  53.0516  54.7112 0001531 140.4271 219.6845 15.40684009296981
STARLINK-1474,45738,53.039,0.0003357,15.66119505,367.7556408225146,372.2863541020106,1 45738U 20038J   25300.50710676  .00068796  00000+0  65719-3 0  9998,2 45738  53.0390  13.8251 0003357 313.9630  46.1108 15.66119505297537
STARLINK-1475,45739,53.0501,0.0005874,15.74709929,341.5072998779224,349.4061778023115,1 45739U 20038K   25300.83334491  .00165018  00000+0  10835-2 0  9995,2 45739  53.0501 338.9876 0005874 349.7743 283.0073 15.74709929  5932
STARLINK-1480,45741,53.053,0.0001261,15.06406076,546.3196518310533,548.0662200408951,1 45741U 20038M   25300.87014634  .00000895  00000+0  78958-4 0  9999,2 45741  53.0530 112.8671 0001261  84.0904 276.0229 15.06406076296189
STARLINK-1500,45744,53.0395,0.0003542,15.2729079,481.484692574797,486.34577037557483,1 45744U 20038Q   25300.83442279  .00027297  00000+0  10166-2 0  9998,2 45744  53.0395  92.3708 0003542 175.0774 185.0259 15.27290790296464
STARLINK-1504,45746,53.0291,0.0002859,15.39968443,444.2514671904046,448.15362454273054,1 45746U 20038S   25300.74186584  .00066586  00000+0  16410-2 0  9996,2 45746  53.0291  57.7428 0002859 196.3021 163.7890 15.39968443296932
STARLINK-1506,45747,53.0549,0.0002962,15.21155795,500.31514386795516,504.3911462298811,1 45747U 20038T   25298.73906850  .00023205  00000+0  10398-2 0  9998,2 45747  53.0549 104.3277 0002962 185.9170 174.1791 15.21155795296119
STARLINK-1464,45751,53.0536,0.0001262,15.06411887,546.3011518445574,548.0491006252187,1 45751U 20038X   25300.14218544  .00004247  00000+0  30374-3 0  9990,2 45751  53.0536  96.1356 0001262  84.2378 275.8754 15.06411887296353
STARLINK-1477,45754,53.0535,0.0001362,15.0639976,546.2690609300325,548.1555260775831,1 45754U 20038AA  25300.82038478  .00001667  00000+0  13077-3 0  9998,2 45754  53.0535  93.0890 0001362  92.8313 267.2831 15.06399760296456
STARLINK-1478,45755,53.0537,0.0001304,15.06405084,546.2929128342275,548.0990396744346,1 45755U 20038AB  25300.83880972  .00001613  00000+0  12711-3 0  9999,2 45755  53.0537  93.0079 0001304  88.7829 271.3309 15.06405084296442
STARLINK-1484,45756,53.0175,0.0001338,15.59598269,387.913462341432,389.72429973519684,1 45756U 20038AC  25300.54730562  .00055972  00000+0  69192-3 0  9999,2 45756  53.0175   1.4946 0001338 318.9137  41.1773 15.59598269297708
STARLINK-1493,45759,53.054,0.0001302,15.06404615,546.2957351234118,548.0990922047295,1 45759U 20038AF  25300.82775545  .00001406  00000+0  11323-3 0  9999,2 45759  53.0540  93.0572 0001302  89.8155 270.2983 15.06404615296445
STARLINK-1494,45760,53.0549,0.000148,15.5099354,412.81876686276246,414.8291873119806,1 45760U 20038AG  25300.79932336  .00038187  00000+0  65138-3 0  9999,2 45760  53.0549  79.4632 0001480  16.0008 344.1047 15.50993540296640
STARLINK-1502,45764,53.0548,0.0001261,15.06401421,546.3339168773919,548.080488685333,1 45764U 20038AL  25300.79458359  .00001116  00000+0  93826-4 0  9999,2 45764  53.0548  93.2049 0001261  83.8747 276.2386 15.06401421296451
STARLINK-1470,45772,53.0489,0.0004032,15.1737179,511.0085655117,516.5662133393325,1 45772U 20038AU  25300.61219424  .00018662  00000+0  93623-3 0  9995,2 45772  53.0489  66.8008 0004032 215.8925 144.1799 15.17371790296806
STARLINK-1482,45773,53.0541,0.0001373,15.06407641,546.2372923311223,548.1389866144209,1 45773U 20038AV  25300.75956822  .00003618  00000+0  26160-3 0  9998,2 45773  53.0541  73.3640 0001373  86.2531 273.8615 15.06407641296720
STARLINK-1485,45774,53.0404,0.0008014,16.0796446,247.11946408216954,257.7469420036068,1 45774U 20038AW  25300.67018087  .00789656  34105-3  93178-3 0  9995,2 45774  53.0404   3.9432 0008014   6.9009 353.2132 16.07964460297687
STARLINK-1496,45780,53.0546,0.0001386,15.06408282,546.2263251253544,548.1460247094419,1 45780U 20038BC  25300.79273139  .00000904  00000+0  79586-4 0  9999,2 45780  53.0546  73.2137 0001386  90.8725 269.2423 15.06408282296710
STARLINK-1497,45781,53.0405,0.0005793,15.53099209,403.75260283252646,411.61465461296484,1 45781U 20038BD  25300.83334491  .00111900  00000+0  17388-2 0  9993,2 45781  53.0405  19.6278 0005793 264.2272 107.9589 15.53099209  5935
STARLINK-1510,45784,53.0333,9.81e-05,15.68220539,363.3309879228291,364.65379370930714,1 45784U 20038BG  25300.83334491  .00115933  00000+0  10082-2 0  9990,2 45784  53.0333 356.2435 0000981  66.7202 336.6059 15.68220539  5936
STARLINK-1513,45786,53.055,0.0001422,15.06398407,546.2316549989409,548.2012255173504,1 45786U 20038BJ  25300.75588619  .00001229  00000+0  10138-3 0  9991,2 45786  53.0550  73.3819 0001422  98.1398 261.9753 15.06398407296720
STARLINK-1522,46027,53.0553,0.0001396,15.06412971,546.2050308676626,548.1385770857323,1 46027U 20055A   25300.47114976  .00011082  00000+0  76146-3 0  9998,2 46027  53.0553   4.6597 0001396  84.5884 275.5264 15.06412971288802
STARLINK-1523,46028,53.056,0.0001359,15.06395734,546.28347599884,548.1657892905932,1 46028U 20055B   25300.61858875  .00007902  00000+0  54882-3 0  9997,2 46028  53.0560   3.9993 0001359 103.6397 256.4743 15.06395734288845
STARLINK-1526,46029,53.0554,0.0001421,15.06406641,546.2071151666996,548.1752934423621,1 46029U 20055C   25300.47851823  .00008191  00000+0  56804-3 0  9995,2 46029  53.0554   4.6243 0001421  85.1297 274.9854 15.06406641288813
STARLINK-1555,46032,53.0547,0.0001254,15.06377789,546.4111850450481,548.1480795364268,1 46032U 20055F   25300.46376382  .00001988  00000+0  15237-3 0  9992,2 46032  53.0547   4.6935 0001254 106.1417 253.9710 15.06377789288817
STARLINK-1556,46033,53.0554,0.0001212,15.06417863,546.3174653471278,547.9961565669037,1 46033U 20055G   25300.57803005  .00003265  00000+0  23784-3 0  9998,2 46033  53.0554   4.1803 0001212  95.1087 265.0040 15.06417863288806
STARLINK-1557,46034,53.0562,0.0002054,15.06401476,545.7845685499269,548.6294998791818,1 46034U 20055H   25300.44903781  .00001658  00000+0  13020-3 0  9993,2 46034  53.0562   4.7588 0002054  60.7486 299.3708 15.06401476288789
STARLINK-1558,46035,53.0551,0.0001566,15.06413781,546.0848185101559,548.253824450042,1 46035U 20055J   25300.45639867  .00015243  00000+0  10396-2 0  9993,2 46035  53.0551   4.7269 0001566 100.6186 259.4979 15.06413781288815
